[{"OBJECT_NAME":"STARLINK-1434","OBJECT_ID":"2020-035BH","EPOCH":"2026-03-09T05:47:35.213856","MEAN_MOTION":15.26724568,"ECCENTRICITY":0.00053438,"INCLINATION":53.0547,"RA_OF_ASC_NODE":22.1128,"ARG_OF_PERICENTER":88.04,"MEAN_ANOMALY":272.121,"EPHEMERIS_TYPE":0,"CLASSIFICATION_TYPE":"U","NORAD_CAT_ID":45712,"ELEMENT_SET_NO":999,"REV_AT_EPOCH":31932,"BSTAR":0.0020295208,"MEAN_MOTION_DOT":0.00054112,"MEAN_MOTION_DDOT":0},{"OBJECT_NAME":"STARLINK-35977","OBJECT_ID":"2025-270S","EPOCH":"2026-03-09T23:19:20.348256","MEAN_MOTION":15.27607303,"ECCENTRICITY":0.00013156,"INCLINATION":43.002,"RA_OF_ASC_NODE":54.1796,"ARG_OF_PERICENTER":237.2277,"MEAN_ANOMALY":122.8448,"EPHEMERIS_TYPE":0,"CLASSIFICATION_TYPE":"U","NORAD_CAT_ID":66604,"ELEMENT_SET_NO":999,"REV_AT_EPOCH":1775,"BSTAR":0.001399044,"MEAN_MOTION_DOT":0.0003847,"MEAN_MOTION_DDOT":0}]
